[{"OBJECT_NAME":"NUSHSAT1","OBJECT_ID":"2025-052B","EPOCH":"2026-03-09T15:31:41.225952","MEAN_MOTION":15.31903202,"ECCENTRICITY":0.0005501,"INCLINATION":97.4095,"RA_OF_ASC_NODE":325.7239,"ARG_OF_PERICENTER":84.7512,"MEAN_ANOMALY":275.4357,"EPHEMERIS_TYPE":0,"CLASSIFICATION_TYPE":"U","NORAD_CAT_ID":63211,"ELEMENT_SET_NO":999,"REV_AT_EPOCH":5488,"BSTAR":0.00074857,"MEAN_MOTION_DOT":0.00023034,"MEAN_MOTION_DDOT":0},{"OBJECT_NAME":"STARLINK-34255","OBJECT_ID":"2025-192P","EPOCH":"2026-03-09T18:28:24.909600","MEAN_MOTION":15.30196109,"ECCENTRICITY":8.376e-5,"INCLINATION":53.1598,"RA_OF_ASC_NODE":232.1756,"ARG_OF_PERICENTER":84.1723,"MEAN_ANOMALY":275.9373,"EPHEMERIS_TYPE":0,"CLASSIFICATION_TYPE":"U","NORAD_CAT_ID":65417,"ELEMENT_SET_NO":999,"REV_AT_EPOCH":2939,"BSTAR":0.00041067785,"MEAN_MOTION_DOT":0.00011822,"MEAN_MOTION_DDOT":0}]
